[{"OBJECT_NAME":"STARLINK-4072","OBJECT_ID":"2022-053AQ","EPOCH":"2026-03-09T12:27:38.093760","MEAN_MOTION":15.08834339,"ECCENTRICITY":0.00015012,"INCLINATION":53.2173,"RA_OF_ASC_NODE":144.8893,"ARG_OF_PERICENTER":90.8166,"MEAN_ANOMALY":269.2998,"EPHEMERIS_TYPE":0,"CLASSIFICATION_TYPE":"U","NORAD_CAT_ID":52694,"ELEMENT_SET_NO":999,"REV_AT_EPOCH":21112,"BSTAR":-2.8820835e-5,"MEAN_MOTION_DOT":-7.47e-6,"MEAN_MOTION_DDOT":0},{"OBJECT_NAME":"JILIN-01 KUANFU 02B 2","OBJECT_ID":"2024-169B","EPOCH":"2026-03-09T21:55:18.103008","MEAN_MOTION":15.09238424,"ECCENTRICITY":0.0011661,"INCLINATION":97.5565,"RA_OF_ASC_NODE":159.2927,"ARG_OF_PERICENTER":15.7533,"MEAN_ANOMALY":344.4056,"EPHEMERIS_TYPE":0,"CLASSIFICATION_TYPE":"U","NORAD_CAT_ID":61190,"ELEMENT_SET_NO":999,"REV_AT_EPOCH":8085,"BSTAR":0.0003793675,"MEAN_MOTION_DOT":5.983e-5,"MEAN_MOTION_DDOT":0}]
